HAWK-11C                
1 62381U 24247E   26068.51221537  .00009223  00000+0  33290-3 0  9992
2 62381  45.0045 114.8762 0005900 329.7040  30.3502 15.28848020 67743
STARLINK-34183          
1 64254U 25119X   26068.35085192  .00025166  00000+0  92119-3 0  9998
2 64254  43.0014 309.2964 0000942 283.8545  76.2202 15.27569860 44116
